{"type":"FeatureCollection","features":[{"type":"Feature","id":0,"geometry":{"type":"Polygon","coordinates":[[[84.995472161805949,25.730216086878144],[84.994534668624425,25.73114824062618],[84.994189310882518,25.731491625927667],[84.991710440531193,25.730521543033934],[84.989277623248,25.729282369692601],[84.987542974893671,25.728597657676122],[84.984706638440557,25.727358612385625],[84.982163729326487,25.725482955183612],[84.98014301956357,25.724509094463581],[84.97852537762823,25.724294064170717],[84.97718553646942,25.724854706599398],[84.97631915297697,25.725514257530293],[84.97531171687325,25.724422745080233],[84.97395583644736,25.723665421537973],[84.973618623731113,25.723420228262519],[84.971692385822323,25.722019596219731],[84.970934426227544,25.721158008144283],[84.970569179250319,25.719258135601724],[84.969561978498035,25.71827039653606],[84.96925758002476,25.717688358393477],[84.969800234583332,25.717155404360895],[84.969854046162936,25.715963913918827],[84.969486458089307,25.710999456040277],[84.968394957042833,25.710368263260996],[84.967685742193865,25.710298419739186],[84.967054694722549,25.710292433351345],[84.966538981553001,25.710585001345713],[84.966073722742095,25.710979032694361],[84.966174195575363,25.712066701432164],[84.96547235765938,25.712902159270172],[84.964301628993326,25.712957028650795],[84.962702195511824,25.712938611039799],[84.962064609862082,25.712931264954808],[84.960190979791676,25.71242690829397],[84.95682153949187,25.71004578019684],[84.954219562484738,25.70804779366],[84.950750029936799,25.70467816122963],[84.950204182010552,25.704491691011306],[84.948249308442755,25.704805818619203],[84.946182264255782,25.705515440789391],[84.943831468664627,25.706681023552257],[84.940788404180054,25.708104062154842],[84.938621753128913,25.709066441942184],[84.937668456336525,25.705695347880642],[84.937557831206945,25.703772750916741],[84.937725720318383,25.702151702916339],[84.934244287374042,25.702402082180736],[84.931504581708154,25.702858964264653],[84.928879216097641,25.702683936712628],[84.927260121786745,25.702607844763865],[84.926338648761501,25.702991724429232],[84.925736108536071,25.703547127337412],[84.925427575195499,25.704332555744269],[84.925373206006881,25.705370642854476],[84.925961909828487,25.707297606663662],[84.925762903037551,25.708006243175745],[84.924716911030686,25.708512181234077],[84.923546237757719,25.708589290766774],[84.922116257801989,25.708359583432696],[84.920526816556432,25.707800378075699],[84.919266416457617,25.707651864747312],[84.918429694332644,25.708360679613143],[84.917114829368302,25.709502968438176],[84.915914386295455,25.710058444704693],[84.914698848644065,25.710261843040978],[84.90869027712958,25.709351710577938],[84.906144475824959,25.70924844814564],[84.903768033228289,25.708919479392176],[84.902706903510065,25.709226545245219],[84.902443019079641,25.709984848717724],[84.902777633662126,25.713306604090036],[84.903337244731389,25.720401478269377],[84.901688036039815,25.720144490730359],[84.89533017445163,25.718146133111642],[84.893322141935812,25.717338494693553],[84.890805791724631,25.715032495899898],[84.889017176078283,25.714500032782869],[84.886261971242249,25.713967700795781],[84.884194298782745,25.713615810327241],[84.881957340923137,25.713489616984734],[84.880338078139943,25.71270433706966],[84.877458404200254,25.711409111561132],[84.876760925027327,25.711842323855048],[84.876188000517331,25.713918513854914],[84.875816697624785,25.714045921060329],[84.875484267874413,25.714227457243947],[84.875040499122548,25.714722867986797],[84.874902602278027,25.718630463478693],[84.874484059824809,25.719338970872052],[84.872904706545356,25.719036645553555],[84.867817765150505,25.718224023456429],[84.865022717251023,25.717921507911729],[84.864295310227831,25.717537790596865],[84.863792174545154,25.716982609956858],[84.862243043203037,25.713561406168619],[84.859896848071642,25.710672588615935],[84.85900011808846,25.710216677802592],[84.855114136221871,25.710116926571622],[84.853659466551264,25.709633724764583],[84.852837626053358,25.708798694986765],[84.851747034383649,25.706618580993233],[84.851413539592528,25.705327696418539],[84.849331760064189,25.702312465577897],[84.848883665555292,25.701346454286295],[84.848774093881303,25.700791348645591],[84.850116799746658,25.699464129126138],[84.851295223230679,25.698841999189277],[84.851370088603076,25.698124389749282],[84.85084724006505,25.697099774563075],[84.848830562457564,25.693416534740312],[84.847929670755263,25.69023897311077],[84.847541918730542,25.68686291475786],[84.847537857969655,25.682877624020804],[84.847463876783934,25.679713749507872],[84.847244901338271,25.678955463963224],[84.845626162024615,25.679009305284676],[84.843663730928327,25.679144295459242],[84.841088587104565,25.679567971654635],[84.838866443100144,25.680009323268859],[84.836276899510949,25.680523600130702],[84.834673067501811,25.680604403584876],[84.832192832683916,25.680084658204141],[84.83004632828937,25.679564974298383],[84.828168950180043,25.678661711504393],[84.827212973567512,25.677876076550028],[84.826443056122287,25.677139960577573],[84.825609902781608,25.676187545195706],[84.823384862195454,25.673226010533764],[84.822981995934612,25.671962126534702],[84.823261174566667,25.671325842898451],[84.822609631404703,25.669303624492837],[84.822291385560334,25.667500622468289],[84.822491071991578,25.667101061736101],[84.823527316138126,25.666261946368323],[84.829081577760832,25.662689222034498],[84.832045481902455,25.660487605047326],[84.833106424896215,25.659865070736181],[84.835342577799537,25.659333120482742],[84.83839545812863,25.658638862670671],[84.840885459870734,25.658373180495524],[84.841602609969897,25.65818378575845],[84.841703975462977,25.657904584769337],[84.841040151922144,25.657258414666583],[84.837017175097799,25.655068434587786],[84.835742599382485,25.654373037039356],[84.835403169484181,25.654101088485454],[84.834931130179598,25.65372289013769],[84.833855821619025,25.652865049491595],[84.832880185341139,25.65182218138343],[84.831536131029466,25.650643796179107],[84.82886823732089,25.647718308327022],[84.827663911134422,25.645980272972164],[84.826882817321234,25.644337148285718],[84.826206377116094,25.642527058604145],[84.825928192809116,25.640942769282056],[84.825869198155459,25.639105804593076],[84.825645324837041,25.638661161522432],[84.824530098800821,25.638482500499013],[84.824331028057316,25.638270302606614],[84.823938486293883,25.636397112432881],[84.823685083448368,25.635178410751784],[84.823874502388662,25.634659437855102],[84.824646491453748,25.634027833361369],[84.824671600208461,25.633517830348318],[84.824323748758417,25.631947052158417],[84.824070540064312,25.630286039001529],[84.823717703322814,25.628769417626852],[84.823255733060705,25.626363618781191],[84.822947445990025,25.625487912546493],[84.822121544842062,25.624296080480136],[84.821479832570461,25.623167498539289],[84.821480058632972,25.622661999722652],[84.821684358151387,25.622242329483694],[84.822187372101254,25.621786659724084],[84.82294414172982,25.621637990261782],[84.824631781585111,25.621661150526275],[84.826742531436693,25.62180178081303],[84.827927268057209,25.622068458277006],[84.830087567284266,25.622840954830707],[84.83090890163291,25.623312435919722],[84.831456383026719,25.623626709322512],[84.832108497749729,25.623760003561593],[84.832023998176453,25.623157465514073],[84.831172998372054,25.622371824112165],[84.830292093309353,25.621649459146834],[84.829889187060999,25.620827862560112],[84.829605875567026,25.619586606259162],[84.828560996615593,25.618205226740436],[84.827580720173714,25.617216450718399],[84.826739651440292,25.616507566592954],[84.825973776634129,25.615697436913546],[84.825779306442556,25.615491726341677],[84.823360863288144,25.613374086494122],[84.822101979343344,25.612145993208166],[84.820668665480838,25.611143550369512],[84.820514686086256,25.610934513052602],[84.819144252498106,25.609699528093806],[84.818378642190211,25.608247513374508],[84.818148390480161,25.606934840181584],[84.817944088297708,25.604390269537998],[84.817392295925288,25.600876515699706],[84.817047815922621,25.598993146700902],[84.816320072487585,25.59705099658634],[84.815713602746257,25.595543311982073],[84.815157239632285,25.59342629143822],[84.815346592062056,25.59287121009336],[84.816994152808377,25.592578459489108],[84.819692050377256,25.592096642094813],[84.821140625197643,25.591551028971924],[84.822382851255668,25.590543539653904],[84.82228614216649,25.589574558627902],[84.822112497596493,25.588473205964107],[84.821709630397066,25.587800615955363],[84.821068054382124,25.58671259973379],[84.820590960295675,25.585358412207782],[84.820352486048179,25.584369912351711],[84.82042285619859,25.582875943331757],[84.820124820967195,25.581697907539166],[84.819677356480213,25.580785993424612],[84.818717709294361,25.578975729977728],[84.817807538163791,25.577747761411057],[84.816007089697834,25.57565730672345],[84.813753730694756,25.573679480785103],[84.813301697554536,25.573203164732092],[84.8122368493528,25.57208109116511],[84.81068495429929,25.570812162693006],[84.808700058648171,25.569583579910311],[84.807063401608673,25.568770433787559],[84.805610636685415,25.568313947461061],[84.803421510563268,25.567680941361925],[84.801923800732297,25.567567372060729],[84.800067672633048,25.567539381426208],[84.797694046852826,25.567741238336691],[84.796250878114222,25.567866812493509],[84.795949694308476,25.56777945662288],[84.795916876222037,25.567353419696175],[84.796824029476397,25.566472506807255],[84.797272437448342,25.565624207684824],[84.797287733344461,25.565005873559191],[84.796726392031502,25.563597370228315],[84.795667636386483,25.561926833692784],[84.794210779283958,25.560228987813439],[84.793097046447485,25.559063975301278],[84.791445767291918,25.558101603690297],[84.79054039410552,25.557731041849877],[84.789699902658072,25.557225070066192],[84.789058378528821,25.556732658975665],[84.787775856372747,25.555183794800342],[84.787210731900188,25.554427198454182],[84.786821418398645,25.553905973125829],[84.786503204259532,25.553452197112929],[84.786001326453686,25.552736506295755],[84.784912397212182,25.551837633081448],[84.782883766503772,25.550049074758494],[84.781894207072256,25.54937589565229],[84.781491578430519,25.548919840760114],[84.779661907652937,25.547397639724906],[84.778891478891282,25.546422231499388],[84.777125249427669,25.544871594839229],[84.776197038689602,25.543888397315797],[84.774322806293853,25.54221706974511],[84.773653287380114,25.541702105132231],[84.772861096493273,25.541101236514518],[84.772021018507587,25.540265724372812],[84.770972780859836,25.538604038040525],[84.770312365243129,25.537082560170518],[84.769756927865089,25.535168418788725],[84.768595238220328,25.532432418088792],[84.768144273170009,25.53098107947115],[84.767771833597223,25.529782440264771],[84.766973430794181,25.526906826149141],[84.766079421837247,25.525461833832317],[84.764583697057091,25.523673417108171],[84.763897950633776,25.522914596435164],[84.763710193583123,25.522612767848827],[84.762378394462928,25.520264075259519],[84.76121744950504,25.517058591389855],[84.760017659838212,25.512991056232309],[84.759179837971232,25.510115348367478],[84.758573848078171,25.509293370413744],[84.756721657003453,25.506236322935372],[84.755914209003606,25.504818503238067],[84.7555747187007,25.504222371763237],[84.756699807944955,25.500005537812065],[84.756687533587808,25.499574093050182],[84.756622418209304,25.498884812289113],[84.756570256257859,25.497477070507465],[84.756268011326497,25.494330279465654],[84.759009561860111,25.494300456902963],[84.761520624980491,25.494482969614008],[84.762096230429606,25.494371620106723],[84.76341333530867,25.494239540754776],[84.764312875807619,25.494261295049718],[84.765129314720213,25.494001426173998],[84.765714799966986,25.493834250768849],[84.766034037731103,25.493742987906082],[84.766691014612732,25.494001216439425],[84.767278586210395,25.494194390412719],[84.768071502787564,25.494254483567499],[84.768674436984767,25.494095504928399],[84.769788486936989,25.493487848026117],[84.770153047656621,25.493333269241042],[84.770657163149124,25.493268907918253],[84.771049056316699,25.493066633407437],[84.771636798662669,25.494204650483319],[84.772226959084264,25.495450606539684],[84.772664991727439,25.496342237202125],[84.77336931170052,25.497858411059553],[84.773804068736013,25.498681702238734],[84.774512558403984,25.499012799595278],[84.774836032693003,25.499177834330684],[84.775224988402357,25.499135719734799],[84.7759297024771,25.498722003759088],[84.776177520630512,25.498575862518809],[84.777597692214883,25.4977383567579],[84.778314233334584,25.497156649721052],[84.778531905990334,25.496839610032385],[84.778733486232611,25.495953856481307],[84.778648964368671,25.495271910542083],[84.778497483995622,25.494396873358088],[84.778452836905188,25.493947775890465],[84.778831833175857,25.493489121682963],[84.779492110754617,25.493082745223152],[84.780132235536556,25.492820209702383],[84.780565315571792,25.492778657287939],[84.781264689348177,25.492740507912419],[84.781828225551763,25.492709765962896],[84.782378292400097,25.492541896194375],[84.783170438594468,25.492405711758014],[84.783605466088048,25.492496368236381],[84.783869331775378,25.493020898273908],[84.784253750215115,25.493707285589124],[84.784644670503937,25.494521942003203],[84.785124775022751,25.49480151684082],[84.785546223806449,25.49491195629334],[84.786388148705782,25.494708494256546],[84.787585183000331,25.494382214165569],[84.788716902158143,25.494255141396287],[84.79035307283705,25.49403962405697],[84.791368156837578,25.49353040628549],[84.792025248180195,25.4932961449096],[84.792541426559339,25.493055696528945],[84.79326537707108,25.493026518716913],[84.793894708574527,25.493022336479743],[84.794658648963861,25.492583084025409],[84.795964826174654,25.491113304122884],[84.796268647186437,25.49042122494803],[84.796458460810982,25.48968735476058],[84.796683566312197,25.488954103935111],[84.796928498009294,25.488589422551982],[84.797720348167474,25.488244739589707],[84.798608535581394,25.487893909284256],[84.799044220099887,25.487708280519602],[84.799287292492252,25.487439696945231],[84.799445532656804,25.486985612687288],[84.799538776562386,25.486714780350667],[84.800090981386305,25.486426823679604],[84.801444530831873,25.485734409756311],[84.801875824525993,25.485308516510717],[84.802420517678968,25.484459815184607],[84.803392666727589,25.483881895224915],[84.805608324296401,25.482353517599481],[84.806321736453924,25.481931830646023],[84.806820144181657,25.481691061831061],[84.807288192092983,25.481368540800549],[84.807814486066007,25.481345508521162],[84.808247228667994,25.481320023396925],[84.808835586105587,25.481953346736653],[84.809013445972113,25.482170073774771],[84.809474324376936,25.482731660093364],[84.80992930688943,25.483427074225069],[84.810263378666022,25.484473067996891],[84.810644923898707,25.48580807173634],[84.810864130958748,25.486860292705924],[84.811095195006715,25.487372262929313],[84.811916909869296,25.486699902764695],[84.812372635565382,25.486378415407579],[84.812790165109433,25.486216483905125],[84.813109020032982,25.48614911907092],[84.813361207021956,25.486353084007511],[84.814570668900359,25.487772453172472],[84.815184348483982,25.488966666058456],[84.815837305974085,25.490425753136702],[84.816475185704419,25.491740462229316],[84.817049840013908,25.49314241546832],[84.817244902266637,25.494554601910171],[84.817400670923362,25.495213587380984],[84.81752743555532,25.495996191124458],[84.81782456579549,25.496164774551495],[84.818125411635748,25.49612123269161],[84.818489928121807,25.495966530307101],[84.819205523768574,25.494936169767872],[84.819961062194636,25.494138646403051],[84.820702639976517,25.493629123023748],[84.820911876512895,25.493233651012158],[84.821197923912138,25.492091083570223],[84.821549426235705,25.490214492719772],[84.821908306268256,25.489394996156324],[84.823241876584518,25.487853329938289],[84.824403893903565,25.486525376657571],[84.825277246140786,25.485553373673142],[84.826152561373604,25.484957794312805],[84.82721265574618,25.484388957677055],[84.828606591379852,25.483897086887026],[84.82921584661176,25.483625964448628],[84.829860590710183,25.483339043746518],[84.831003234222209,25.483083712865554],[84.831928321172654,25.48315344635586],[84.833504950668413,25.483296889470719],[84.83488216708804,25.483741561590271],[84.835578529558987,25.484272304203085],[84.836170589171658,25.485694912605684],[84.836241100142317,25.486684462974267],[84.836577180821749,25.488114692629825],[84.836539511820789,25.489723637070661],[84.83669868280559,25.490198428177475],[84.836760816625059,25.491160296921773],[84.836960984553684,25.492300307188543],[84.837044506593486,25.493550794434167],[84.837066654907048,25.494279823698346],[84.837157212913979,25.494573641872989],[84.837250129776706,25.494875114082905],[84.837797098144506,25.495371601495499],[84.838560065060008,25.496119588724259],[84.83924193186381,25.496970451985501],[84.839747790142795,25.497786674148728],[84.840110827263558,25.498208413007777],[84.840486869063938,25.498398091875227],[84.84111994121568,25.498519525557711],[84.841798879834045,25.49854559036276],[84.842814990941207,25.498960959965459],[84.843681737722562,25.499341991360616],[84.84514541786244,25.499892014246136],[84.845649112754458,25.499851397283852],[84.846433580089155,25.499398424913991],[84.846940772480224,25.499080288978018],[84.847593624742984,25.498670782089881],[84.848231940460181,25.498007502696534],[84.849339767139497,25.496742545652683],[84.849676039558545,25.496194969402374],[84.84966860480445,25.495618340792387],[84.85005077352244,25.494967271399972],[84.850663334382176,25.494760070451189],[84.851286352566362,25.49445688788953],[84.851417394088898,25.494034383793654],[84.851453813388005,25.493474373707642],[84.851304710175171,25.492927712524796],[84.851539974719515,25.492594834724706],[84.852060023108322,25.491978419660523],[84.852559447220003,25.491825009177063],[84.853924976986718,25.491941046235731],[84.855157699518116,25.492414899773863],[84.855863570442537,25.493322750418145],[84.856500386839244,25.495221937571383],[84.857004571913762,25.495645700726801],[84.857500904822018,25.496517782227155],[84.857970183402543,25.496925055064253],[84.858526811917741,25.497381533524493],[84.85875960383899,25.498185764125328],[84.858495419786621,25.498851555699115],[84.85976161229064,25.499321273827235],[84.860630202933976,25.49964348595929],[84.862959589255041,25.499798269753931],[84.864542589826314,25.49994815550038],[84.865575064136834,25.500425935653993],[84.867346263455843,25.500755786001847],[84.868552012776675,25.500786292148138],[84.869715694357694,25.501074440482931],[84.870622585761865,25.50306034624418],[84.870666653678725,25.504228468890652],[84.872354660639729,25.502922972386813],[84.873001157314533,25.502202700961998],[84.873073054778132,25.501731528496311],[84.873753893650942,25.501173861550154],[84.875733831928287,25.500998407472494],[84.876674123074338,25.501252188721857],[84.877785751132322,25.501217254566718],[84.878802850658261,25.500788479597794],[84.881141073374678,25.500606738137161],[84.882306156975986,25.50093082289176],[84.884084435995774,25.500658431029237],[84.885178388455955,25.501201171816195],[84.889880458186141,25.50202707085861],[84.890120528469481,25.501289023553813],[84.889939160924882,25.500414457076637],[84.889811190475896,25.500000304205702],[84.889698057683077,25.499634171667903],[84.889699793160105,25.499042928709382],[84.889735555179783,25.498749706882819],[84.890471954299898,25.498490902506223],[84.891567579994401,25.498398390102654],[84.89226780839023,25.498408460616023],[84.893366887544403,25.497859193318035],[84.893902875590996,25.498361283373324],[84.895063260225314,25.499602158376135],[84.895384964677632,25.499678087499987],[84.896264221035651,25.500051771448813],[84.897084167733368,25.500278190069746],[84.89714925261589,25.501221594018073],[84.89777509881705,25.50144682807484],[84.898041447223832,25.501790478775451],[84.89782629637719,25.503393867885851],[84.897572261785484,25.505274741741648],[84.897697257262195,25.505650575207412],[84.897814875724706,25.506004224308384],[84.898632222978478,25.506222371671683],[84.905037345773351,25.504277134187276],[84.907143777480343,25.503975172164008],[84.908505137375528,25.503994605039392],[84.909631102998759,25.504829356244642],[84.909849895695359,25.505669154839794],[84.910474685983957,25.506557511118132],[84.910441135950791,25.506128557709442],[84.910442951815639,25.505460610229271],[84.911144454314154,25.505439198915518],[84.911361302966753,25.50428080037727],[84.911108674852244,25.503052124930079],[84.911599997847532,25.502200549391279],[84.911609474838443,25.501652724625256],[84.91159922513566,25.501188726443974],[84.912491363418269,25.500383227428188],[84.912836974068227,25.500048428190276],[84.91306574335313,25.499567360258176],[84.913401213120252,25.49875124968796],[84.913068040199988,25.498272153958734],[84.912758324214096,25.497592818820621],[84.913516227774821,25.496746163629663],[84.913970625147471,25.496022912304234],[84.914137613717045,25.495660429187609],[84.914517355629442,25.495775325424301],[84.914922369761697,25.496747935986765],[84.915261246615287,25.498066230115068],[84.915747877101296,25.498967064322436],[84.916463337874418,25.499415029843878],[84.916844982226721,25.499420453910652],[84.917321030987466,25.498606330429112],[84.91766001151278,25.497561701675707],[84.917875657290907,25.496707318378661],[84.917627432939383,25.495955839757247],[84.917036277496535,25.495290748088532],[84.916384872901915,25.49462470828152],[84.916292310902946,25.494167363826445],[84.91672709663699,25.493616594958119],[84.916555551710047,25.493085101854309],[84.915982813650359,25.492548764497183],[84.914397855535583,25.492397731637041],[84.912275413152187,25.492002664628501],[84.91123076305982,25.492006019436754],[84.9100117593524,25.491642022941178],[84.90891348927002,25.491261504629044],[84.907638668916334,25.490641328864111],[84.906907002923674,25.489974104728336],[84.9062314308011,25.488567130482515],[84.905424028822083,25.486475943677366],[84.904820079626163,25.483154527177785],[84.904392709884689,25.481317064280436],[84.904174005755749,25.479924036635037],[84.903974385716992,25.478698882285702],[84.903755852458872,25.477400521385498],[84.903735616785951,25.476250955999713],[84.903681425586555,25.474742816736185],[84.90381678651417,25.473887306382732],[84.904476447068575,25.473521969879755],[84.905491940257505,25.47341864915386],[84.906191871498805,25.473592836372436],[84.908525739587617,25.474151123971208],[84.910065883893012,25.474519700688159],[84.910948045471827,25.474605292831185],[84.913372049607773,25.474968096330748],[84.914052767021033,25.474930009384718],[84.914911109403462,25.474190574932901],[84.914920233885326,25.473661648615391],[84.914564158737249,25.472178913179537],[84.914711319423006,25.47167803559147],[84.915437628906631,25.471487694768641],[84.916218837230687,25.471608287449772],[84.917065635983093,25.47141964887064],[84.917404228682514,25.470421044464764],[84.917504662296082,25.469254952524889],[84.917979002421689,25.46853196360863],[84.920068004244442,25.466819883470208],[84.921204894742232,25.466106274154832],[84.92189601474287,25.465623564383922],[84.922721118060522,25.465525753700142],[84.924428431205669,25.465513447648426],[84.925633720334261,25.465494024238829],[84.927922622884566,25.465273346121794],[84.928468460574493,25.46506215407652],[84.92879475490713,25.464774834578531],[84.928923676243897,25.464284062704447],[84.928919213589225,25.463371843427776],[84.928666022699787,25.461823787710546],[84.92849749373697,25.459942393025209],[84.928449435846062,25.459230223559004],[84.929060481566296,25.45872802205772],[84.929743101489734,25.458737653181075],[84.930674480912884,25.458294756293746],[84.931106979117772,25.457662298478688],[84.931116648844181,25.457096905631907],[84.930727098985244,25.456667174386929],[84.929939947946934,25.456624279767574],[84.928815588541482,25.456608416160773],[84.927606950661925,25.456828487975702],[84.926399770937522,25.45695739973748],[84.925094794898499,25.456938955048702],[84.924010596083903,25.45692362236116],[84.922663897502687,25.456995737468795],[84.921427427525501,25.457122026643205],[84.920143374014984,25.457049132410607],[84.919141791463431,25.456907205741071],[84.918136659522361,25.456965887283602],[84.917710907582759,25.45719707003747],[84.9170248468278,25.457387999159565],[84.916064682701304,25.457173703637238],[84.915143639362142,25.457014659298235],[84.914391546150355,25.456860177084845],[84.913880488947498,25.456214452904096],[84.913386784108567,25.455733079268562],[84.912886791007082,25.45561647555057],[84.911663631079563,25.455507906854887],[84.910779616964547,25.455531793340924],[84.910580043747089,25.455124951638798],[84.91090203344443,25.454995000832799],[84.911624153085342,25.45504174589454],[84.912471782526737,25.45479843879458],[84.913683034671493,25.454432566691505],[84.914048132693864,25.454218767314018],[84.914208158798573,25.453673795995311],[84.913784638079093,25.453193467072783],[84.913243866750733,25.453112842963932],[84.912664199219066,25.452958593577897],[84.913291261143044,25.452693863671563],[84.91377493814089,25.452591335397127],[84.915037286565848,25.452755144595976],[84.915718607995331,25.452837847792484],[84.916295541731344,25.452827805258941],[84.916924480640148,25.452453637560904],[84.917274296816942,25.451966011758142],[84.917463166350132,25.451494426221295],[84.917496053679287,25.45099330009057],[84.917600087616918,25.449408028891675],[84.917446377040775,25.447836997589164],[84.917380818122723,25.44697861595542],[84.917510701122524,25.446433166415339],[84.917838121745064,25.446072949159053],[84.918523900776776,25.445900242707317],[84.919308712222431,25.445801963812265],[84.920617638593868,25.445583286086514],[84.920980503503117,25.44549725512875],[84.921657506207112,25.445835234681251],[84.922092540072782,25.446224489672421],[84.922590942312553,25.446432208472626],[84.923461989998657,25.446034428766705],[84.924525812802244,25.445604919663552],[84.92564756570691,25.445766737067881],[84.92792167815702,25.445470458216136],[84.928566564415789,25.445333595233571],[84.92892106432366,25.444545050833124],[84.929429962233925,25.441797518278847],[84.929570913767932,25.440595510472704],[84.929315967774158,25.440208822463731],[84.929019780586529,25.439949181485829],[84.927734124231691,25.439985835426512],[84.925458225828777,25.439736873569018],[84.924416835840219,25.439576192681812],[84.923140259922448,25.439083874135751],[84.921668879996687,25.438242069678815],[84.92051425616485,25.43766019477782],[84.919917078270615,25.437359901447756],[84.918912735696551,25.43738213829613],[84.918333846017632,25.43753104058607],[84.917987856516177,25.437460288432472],[84.917562733875783,25.436641760485276],[84.916995058407352,25.435794580997314],[84.916809047302706,25.434934489408697],[84.916309771762968,25.433613921809307],[84.915656809500874,25.431889840644661],[84.915205378732708,25.430251212743219],[84.915131358482682,25.429885299855286],[84.914624472143885,25.429586178636438],[84.913726209088523,25.429865347430301],[84.913219092861837,25.430168211732607],[84.912756207721415,25.430234660804757],[84.91257931605945,25.429992748569386],[84.911982549544518,25.428527085096199],[84.91148988449585,25.427729265762796],[84.91036408915393,25.425903189972956],[84.910194118715296,25.425280543046757],[84.910311479462933,25.424297032416366],[84.910595990995319,25.421765372659465],[84.910616494631228,25.420587943028611],[84.910303038919196,25.419053255653608],[84.909861118377009,25.417900132145256],[84.909367541872982,25.416251232185068],[84.909023010810103,25.415279473406208],[84.909470992188076,25.414249115973483],[84.910212717286456,25.412531680501182],[84.910729511083332,25.411663342554988],[84.91132029617502,25.411161005901086],[84.912518571210995,25.410357047036829],[84.913471575194507,25.409805053836674],[84.91377568922502,25.409626939914268],[84.914281559579905,25.409396987064785],[84.915124054691603,25.409427176444858],[84.915832832553306,25.409072367386049],[84.916483800412308,25.408570771116064],[84.917143654642317,25.408065301274483],[84.917468188057143,25.407190985890182],[84.917462316398883,25.406317740568898],[84.917382949981402,25.405094387122865],[84.917116997106433,25.404214928382956],[84.917325848689671,25.403743619755701],[84.917990901477239,25.403588844170475],[84.918364698072196,25.402864410696328],[84.91849294930644,25.402410102710494],[84.918361508794206,25.401996528831287],[84.918164661640532,25.401774840583666],[84.917590451632378,25.401310582579104],[84.917096936955105,25.400829321882622],[84.916685275574338,25.400257957954413],[84.916578327397403,25.399472013264461],[84.91657181228571,25.398426715393803],[84.916567638269925,25.397757039087406],[84.916968236508126,25.395326560654539],[84.917512881681674,25.394003363562977],[84.918877639205746,25.392837557148294],[84.919528185106117,25.392354530476137],[84.921153640513282,25.391775703143939],[84.922000447415925,25.391541422084451],[84.922406903854863,25.391100229592663],[84.922608383804331,25.390318932452473],[84.922990120672594,25.389120506769597],[84.923211304116919,25.387919811114394],[84.922722301863217,25.386062039921441],[84.921768007715215,25.384370467186876],[84.92122536850772,25.383250149612451],[84.92117734636075,25.382538155916684],[84.921322780080914,25.382081802135147],[84.922213278606705,25.381804921452879],[84.923160191313798,25.381581251229186],[84.92416356145398,25.381577091769429],[84.924562621755669,25.381710453160849],[84.925538446246861,25.382143698831204],[84.925837934373661,25.382110985614755],[84.926369628303917,25.382178186475336],[84.927345629412244,25.382294464596729],[84.927655704313835,25.382315269336036],[84.932785619441262,25.382928174723023],[84.935822967519584,25.383209959410063],[84.935733560566263,25.382829020767808],[84.935469497154088,25.381703915506701],[84.935346691042113,25.381136656683751],[84.935013973402008,25.3801402015199],[84.934469599403045,25.379646820042566],[84.93369767514713,25.379194833550379],[84.932726914600877,25.378854600560622],[84.931811536381744,25.37850674454878],[84.931261609412076,25.377803940291908],[84.930882002777011,25.376890948401769],[84.930702717338733,25.376059397414814],[84.930321802592175,25.375584052716825],[84.930017199123483,25.375203933707439],[84.929506722297404,25.374514046595646],[84.929444535696263,25.373843196544293],[84.929600029705014,25.372823722769176],[84.929700493321207,25.372339399859555],[84.929626793877503,25.371790160106233],[84.929421766339331,25.371385307665957],[84.929123471056386,25.371054516708686],[84.928413778066286,25.370382963727504],[84.927804002678187,25.369581256252523],[84.927717065852875,25.369278534108879],[84.92771862601721,25.368628078912906],[84.927896695084556,25.367910421903812],[84.928144181252492,25.367444960871413],[84.928180221430964,25.366951337125183],[84.92785316452148,25.366181613190633],[84.927553834818355,25.365365068464779],[84.927348287700624,25.364882159315325],[84.926705309364621,25.363371533383134],[84.92614428063662,25.362777422556039],[84.925833918924539,25.362613904714319],[84.925447284086275,25.362600058585038],[84.924907097600169,25.362537107419907],[84.924306758205901,25.362093093805729],[84.924055916411433,25.361679283949861],[84.923605092893283,25.360567493357284],[84.92312675280705,25.359444390207923],[84.923059032907801,25.358779313803105],[84.922992688369334,25.358127733861334],[84.923061749307763,25.35732477533098],[84.923304641027201,25.356511541187292],[84.923600205170786,25.355929506466669],[84.9241783143014,25.35497458323329],[84.924593240784617,25.353813258197476],[84.924894652434531,25.352887919209984],[84.925110975248217,25.352622961086389],[84.92565086878092,25.352287277403352],[84.926443679420444,25.351998484658466],[84.927170423545761,25.35180062654392],[84.927549778812306,25.351832587039421],[84.927985233401657,25.35180246309622],[84.929013557155102,25.351992778945792],[84.929808943759824,25.352112109269239],[84.930702257197098,25.352116275074071],[84.931558966429222,25.352111526327427],[84.932088892799584,25.351817563902589],[84.932606000483403,25.351361160739575],[84.932779876510736,25.350721833374724],[84.932619227838345,25.348824466078284],[84.932219001574907,25.347457134541333],[84.931891455869618,25.346682085803518],[84.931715458203769,25.345150634454797],[84.931525964497283,25.344377524518798],[84.931490238194087,25.343774115285147],[84.931621212520582,25.343076278651459],[84.931984329444077,25.342302536483995],[84.93223973833561,25.341904154524194],[84.933092921125279,25.34110460043572],[84.933734148387984,25.340604674006304],[84.934116601196294,25.340316935701292],[84.934493088494236,25.339836478057912],[84.934616161649899,25.339105398346479],[84.934633644750889,25.338619904190256],[84.934699097765673,25.338017822935107],[84.934591659999882,25.337296146963844],[84.934302814026694,25.336441938015181],[84.933864043261948,25.335724640934824],[84.933221939831327,25.335037256997822],[84.932543863952958,25.334536275635898],[84.932072822221258,25.334376332081966],[84.930982278980508,25.334360202618527],[84.93014202975796,25.334490750157958],[84.929280458168051,25.334788442390774],[84.928254968900077,25.335157392348901],[84.927306288699185,25.335705065957448],[84.926617106504068,25.336156008489958],[84.925744665398781,25.336554084835267],[84.924899826661857,25.336952455800255],[84.924145977017616,25.337248200602591],[84.92353938486869,25.33734364130094],[84.923018990371119,25.337361397314233],[84.922174771089388,25.337182039027596],[84.921297818200628,25.336767694973297],[84.920988429612748,25.336545598820624],[84.920813458927299,25.336184947402185],[84.921061917500921,25.335483088582979],[84.9215117315226,25.334950893218149],[84.921999200966169,25.334446940895415],[84.922486524789065,25.333951289071013],[84.92306628045138,25.333440329045832],[84.92362456202261,25.33310481751715],[84.924184063883217,25.332639424399073],[84.924579460020539,25.332134164017958],[84.924753192018684,25.331667664121213],[84.924688653174627,25.331130736952261],[84.92447770662065,25.330541557228269],[84.923882974195465,25.32988260639755],[84.923247522744717,25.329346025002966],[84.922503498563614,25.329235063579482],[84.921844822652915,25.328994592595048],[84.921704759780553,25.328705107759344],[84.921302212739306,25.327873107514325],[84.920999910375315,25.327266565985518],[84.920379309643181,25.325868385566526],[84.91989360242988,25.324423452678303],[84.919640859281571,25.323050955264449],[84.919412098582825,25.3223771831893],[84.919259512908653,25.321927768563242],[84.91878920598387,25.320408488643967],[84.918534548151158,25.319148978871635],[84.918366453537473,25.318449239059262],[84.917686885558169,25.31784335638444],[84.916095806536561,25.316710644326498],[84.915123269803743,25.316244819836331],[84.914093057968017,25.315928740968388],[84.912661345347544,25.315669886741105],[84.912045819465135,25.315322025461004],[84.91173571217881,25.314983128632335],[84.911628876766713,25.31467556960018],[84.911555316776685,25.313330695889217],[84.911776757232701,25.312492347941795],[84.912427848298947,25.311489118359642],[84.912666861712182,25.311241285922293],[84.913025492383738,25.311210211715832],[84.914281467440006,25.311301878507631],[84.914971906630257,25.311299101700936],[84.91574739774093,25.311171869323744],[84.916471237477055,25.310830507300626],[84.916565525566511,25.310166196922918],[84.916244732175741,25.308786774417303],[84.915946782915,25.307639665885002],[84.915648407252007,25.30651764544471],[84.914819020696669,25.304290170527523],[84.914120490979286,25.303149939368566],[84.913810313965612,25.302718487064759],[84.913140686296842,25.302231961852417],[84.912354112433277,25.301834899188385],[84.911527571793201,25.301722721883905],[84.910712034774079,25.301773901859402],[84.910031948508973,25.301913826849013],[84.908925498492252,25.302087709391067],[84.908374402989736,25.302017063299427],[84.907644462092165,25.301906235617974],[84.907070515802275,25.301558947481251],[84.906735142287872,25.300989013175389],[84.906292732162541,25.300216619233286],[84.906015050608801,25.29951426595234],[84.90602541133245,25.298911508406295],[84.906272176985539,25.298211729062995],[84.906628684647018,25.297551150347278],[84.906447051202051,25.29687038218411],[84.905878741720954,25.296196668429658],[84.90529750325409,25.295472490218991],[84.905083887235008,25.295098991650228],[84.904903239504463,25.29468373168605],[84.904863344678375,25.294279467874162],[84.905299614581182,25.293795867872866],[84.906239293785106,25.29294263478176],[84.906823119794097,25.292411774370915],[84.907136918752215,25.29212644019125],[84.908004397581706,25.29103548406944],[84.908947832660985,25.291222543143029],[84.910051309758074,25.29115017578432],[84.910578189213481,25.291116118978564],[84.911372330125701,25.290967954428513],[84.911938007106997,25.290764375266225],[84.912619924082279,25.290434889209969],[84.913246078604402,25.29019678801334],[84.913762168658792,25.290100419684926],[84.913967957625928,25.290617172757354],[84.914075913112555,25.290946376591471],[84.914264027189446,25.291366622580018],[84.914565342274074,25.291699464358206],[84.91534262182951,25.292220747247935],[84.915753842701477,25.29249068752371],[84.916586657112134,25.292737789875808],[84.917103623612263,25.292793206711256],[84.917404799473459,25.292774623453369],[84.91784161209651,25.292610634671963],[84.918411350061945,25.29227385022568],[84.918790846836558,25.292128548470782],[84.919182812934466,25.292543812637259],[84.919284627473345,25.292873017342643],[84.919509941764076,25.293261646490034],[84.919778740634726,25.29373510988902],[84.919951773404563,25.29402351295527],[84.920237237863745,25.293944142650609],[84.920583195284834,25.293722085509788],[84.920951521742296,25.293317907344505],[84.921236965275483,25.292696636711639],[84.921326404204763,25.292389537070836],[84.921836678813349,25.291897044101859],[84.922696024577974,25.291243641791642],[84.922927937623015,25.291047503733321],[84.923524513622439,25.290442660175358],[84.923956497052345,25.289893810918208],[84.924245963067833,25.289263914703763],[84.924472390270921,25.288845641845047],[84.924545624972993,25.288460364704598],[84.924477305856286,25.28781645819285],[84.924456721512001,25.287206037051586],[84.924550202872538,25.28695811858049],[84.924616050782475,25.286636241004771],[84.924244652795437,25.286170368596579],[84.923879538769569,25.285884803484947],[84.923437663721415,25.285518996810499],[84.923179242667103,25.284806561372516],[84.922910865281764,25.284008501036727],[84.922861099191735,25.283724353406498],[84.92250844953351,25.283129204513369],[84.922329580242987,25.282858674595097],[84.922006733361442,25.282286060165791],[84.921758178003685,25.281438358158887],[84.921554328626911,25.280635697791531],[84.921449913894691,25.280342655858707],[84.921226946447646,25.279804882542642],[84.920387149744215,25.27907572876649],[84.91962238786536,25.278417622434961],[84.918755934708244,25.27767150881018],[84.918087978833057,25.277011060369901],[84.917775210014852,25.276763098894804],[84.91749509132886,25.276273295989586],[84.917482053745232,25.275983004853376],[84.917561376709259,25.275721440624764],[84.917755888562425,25.275435387850102],[84.918256103831382,25.274891468915154],[84.918598471014093,25.274661419164559],[84.919625838461101,25.274065779199052],[84.920653025612467,25.273276320665101],[84.921551534887186,25.272721864445636],[84.921680318519066,25.272450747381061],[84.92202768788718,25.27217101999307],[84.922423458480708,25.271816513397791],[84.922697499840368,25.271571042875557],[84.923387206966595,25.270880801200271],[84.923943913141812,25.270380707090954],[84.924220860637675,25.270131919554299],[84.92472701716683,25.269784550632703],[84.925282767660818,25.269270291158517],[84.926245567979265,25.268900135016672],[84.927547271746008,25.268588093657808],[84.9285485584399,25.268389783222148],[84.929049727032691,25.268218173804051],[84.929630484444331,25.26810075879996],[84.93097064518301,25.267973951118677],[84.931442114683279,25.267937683476319],[84.931905317393841,25.267911387456355],[84.932320736680296,25.267887802545626],[84.932787272840329,25.267896596442263],[84.933253876929911,25.26791892970218],[84.933660968524393,25.26810824103509],[84.934137686055678,25.268342487164357],[84.934435509520782,25.268430336962105],[84.934802795565247,25.268355769532427],[84.935249484565304,25.26822932346812],[84.935810270573313,25.268147893377009],[84.936207493385581,25.268298829845076],[84.936451143907561,25.269112727800632],[84.936630173961774,25.269820693151299],[84.936650150806031,25.270136285839708],[84.936357394659609,25.270235641675175],[84.935717085233165,25.270299080865911],[84.934694594074443,25.270349044092352],[84.933875609596313,25.270475690242755],[84.9334835437284,25.270627661154489],[84.934069464081105,25.271134036780147],[84.934451818077193,25.271454071436544],[84.934635634742278,25.27167943109308],[84.934675606958962,25.272121321463239],[84.93468559662719,25.272387396395011],[84.934804966936639,25.272883476931248],[84.934949091260407,25.273248650874354],[84.935244668901447,25.273575503261256],[84.935778347515495,25.273654194344317],[84.936289510258504,25.27347358395216],[84.937172928345419,25.273265770532056],[84.937609681409782,25.273134846110263],[84.938066449879244,25.273170659036058],[84.938379865666306,25.273314455418657],[84.938731813737533,25.273558279875857],[84.93893048505214,25.273909859125197],[84.938906021826838,25.274523264693329],[84.93866305451634,25.274983316961873],[84.938439819473771,25.275244959892472],[84.938062682287736,25.275484140435587],[84.937755918701512,25.275692167311821],[84.937477065009872,25.27588126663327],[84.937134720063071,25.27612937241398],[84.936787346639278,25.276404667213786],[84.93638539031609,25.276625803255467],[84.935988349543933,25.276720628803549],[84.935308322555272,25.2769553833255],[84.935204348710982,25.277370343197404],[84.935239543818199,25.27831731728849],[84.935284681828207,25.279286907182389],[84.935299758012135,25.279674737902049],[84.935364553962827,25.28017528955095],[84.935508693994649,25.280463823879291],[84.935635429024899,25.280824511507099],[84.935906035099109,25.281049911667779],[84.936278438680674,25.281085814353276],[84.936754905917951,25.281027033998541],[84.937201711236156,25.280914037066839],[84.937626124820426,25.280927418825179],[84.938054713573109,25.281245014409109],[84.938497837831093,25.281955279434396],[84.93886568637194,25.28273069519792],[84.939087298849714,25.283041131313986],[84.939233438494895,25.283506199558342],[84.939621059965702,25.284263654693437],[84.939813339264205,25.284610084440985],[84.940291678976195,25.285160829060491],[84.940540078950491,25.285408749850333],[84.940952255714038,25.285665546473897],[84.941453738853255,25.285931441856039],[84.941707127507286,25.286260492699441],[84.942035096342181,25.286824022793386],[84.942323434023024,25.287500378809462],[84.942591877279156,25.288149645958079],[84.942885121959605,25.288794384784467],[84.943148526746356,25.28925419370713],[84.943347204936131,25.289542760182819],[84.943684970851749,25.289826676869612],[84.944156816755637,25.290155701348692],[84.944420068134633,25.290295317864402],[84.945259182138543,25.290542979341058],[84.945686153202857,25.290583412131419],[84.946560039248808,25.290718260817538],[84.947255177905163,25.290916333940359],[84.94755828173848,25.291416768884755],[84.947652918942111,25.291840641881624],[84.947747528369987,25.292354693855675],[84.947896698724762,25.292647711873641],[84.948105330115979,25.292994816023942],[84.948388439831191,25.293170539998989],[84.948696326053934,25.293183941062651],[84.949252233979379,25.293021333380491],[84.94973851919552,25.292664847774031],[84.950061047957021,25.292285863760025],[84.95027415834187,25.291640865540277],[84.950301208082834,25.291219227935123],[84.95061120516371,25.290847017704767],[84.950814537883346,25.290422954797172],[84.95108242832363,25.290156780044612],[84.951663300596536,25.290156533871393],[84.952983774132093,25.289997940269341],[84.954085925359635,25.289920708638046],[84.955158250898563,25.289893065048648],[84.95623054799745,25.289878954100764],[84.956652538624184,25.289896807738401],[84.957660411486387,25.290018011583633],[84.958181718209559,25.290058269922117],[84.958961153114771,25.290035299291066],[84.960281509556282,25.289705304121032],[84.960720982050375,25.28956023551363],[84.961686213223771,25.2892354596625],[84.96304652056817,25.289270775327157],[84.963751543878686,25.289315447434724],[84.964645272311131,25.289499841947805],[84.965136851138467,25.289625783854728],[84.966311119200526,25.289787410236936],[84.967199867769196,25.289969733066126],[84.967470847127728,25.290386460972581],[84.967699467511395,25.290729030767636],[84.967977746089176,25.291166257478991],[84.968305717109047,25.291481760329116],[84.968648482051492,25.291815249775883],[84.968880718232768,25.292161463025526],[84.969080890770357,25.292459874515252],[84.969540698937209,25.292720053156856],[84.970451432490947,25.292765627033777],[84.971598281803892,25.292760374967038],[84.972705416504695,25.292737055281069],[84.973797655605125,25.292713793325053],[84.974199755506618,25.292722567951582],[84.974889795987863,25.292690522223477],[84.975237310831204,25.292667762221107],[84.975783532164485,25.292757589493792],[84.97623068335723,25.29310901467808],[84.976576218747311,25.293265857895221],[84.977144166986434,25.293099342691004],[84.977367402824953,25.292900738897256],[84.977704737496254,25.292611894381491],[84.978076711758419,25.292156250121195],[84.978270164278953,25.29186741634118],[84.978443467187134,25.291434413171849],[84.978468045091319,25.291060123409444],[84.978482431372072,25.290527990282229],[84.978506986483737,25.290131132586708],[84.97868546333639,25.289846876547188],[84.978933561452564,25.289693385104751],[84.979315867393197,25.289733649746996],[84.980204593913029,25.289868323586859],[84.980645878926012,25.290021327183695],[84.981491000683974,25.290458169449852],[84.981908300218649,25.290759971827846],[84.982161735983453,25.291129581988397],[84.982207058952099,25.291810579201201],[84.982113364722053,25.292581750131763],[84.982012206335042,25.293305226797479],[84.982109210130247,25.294401707632513],[84.982066152449903,25.295264967088503],[84.982017229984621,25.296180463452977],[84.982063969526294,25.296700520528034],[84.981943629489393,25.297086955637834],[84.981780580590183,25.298034108389285],[84.981765920328769,25.298313659790949],[84.981597623117892,25.298918069957679],[84.981533684152893,25.299612645878717],[84.981623784736328,25.300401769070739],[84.981902444527236,25.301078015470779],[84.98208683410931,25.301930175258374],[84.982213627180585,25.302515826546308],[84.98227132544983,25.302782334929411],[84.982470690951374,25.303611950242416],[84.982640145837323,25.304382931116393],[84.982779833231618,25.305158559234137],[84.982964286696443,25.305947528713872],[84.982960147949214,25.306881059265486],[84.983027859053763,25.30789527048967],[84.983834895247085,25.307831940465668],[84.985205364074091,25.307848966300522],[84.986575711859032,25.307825355453815],[84.987663125783612,25.307802021786024],[84.988760521458573,25.307895898506999],[84.989932400952895,25.307899427251083],[84.990056866223313,25.308318722160191],[84.990201456526862,25.308884576178212],[84.990996105542607,25.309048555596],[84.99160686743177,25.309102196138859],[84.992406397513321,25.309205256741137],[84.992932795661574,25.309249979568531],[84.992883706616354,25.309836258225449],[84.992904319045039,25.31068852321367],[84.992895285084018,25.311531808703066],[84.992925876185552,25.312357038730894],[84.992976252707621,25.313150761873349],[84.992996885806079,25.313899304620382],[84.993046626979506,25.314233074130691],[84.993111793021285,25.314670345602174],[84.993241699281512,25.315441410315682],[84.993460891505705,25.316194282508484],[84.993699998335359,25.316938217223271],[84.993904248678305,25.317700183682245],[84.994123523063664,25.318466596238935],[84.994322600828937,25.318939983310308],[84.994506549277446,25.3191562504269],[84.994784745672973,25.319246246060072],[84.995307681279272,25.319201385507156],[84.996221486801133,25.319044909336167],[84.997207636883303,25.318797781432718],[85.000094459599225,25.317968301751485],[85.00129643865094,25.317667220397762],[85.002354282369382,25.317496597920698],[85.0032434072141,25.317276108453804],[85.004061876373655,25.316604543244313],[85.003761782647686,25.31538994689323],[85.003475054157377,25.314094269500369],[85.003049656609079,25.312455482996938],[85.002995978382657,25.31147151230579],[85.002957545754526,25.310248256079102],[85.003057596400765,25.309494575663738],[85.003177825852944,25.3084610546268],[85.003408695619427,25.305960754974379],[85.003630494312731,25.305155236956118],[85.00454180406372,25.304923615947882],[85.004879756333722,25.304644013478651],[85.004979687473664,25.304127520414053],[85.005064686105442,25.303430007709679],[85.005169787491212,25.302536380427515],[85.004743896713464,25.301479847918355],[85.004287726773313,25.300865689430974],[85.004268705976543,25.299989971220285],[85.00431917216045,25.299127922510834],[85.004329967565724,25.298274905766025],[85.004499666037404,25.29742647646583],[85.004753541747263,25.296767675041636],[85.004977598750202,25.296104407084098],[85.004904428941146,25.294835993174509],[85.00500695152941,25.294050747483787],[85.005381904030017,25.293964034786693],[85.006121658574628,25.293911730187798],[85.007223987413468,25.293849450349562],[85.007680814354671,25.293773024460791],[85.009627126844052,25.293652707343274],[85.010759206891777,25.2935317637655],[85.011801968365958,25.293401662441227],[85.012046011500772,25.293996166276308],[85.01230774272058,25.294110711634904],[85.01332561425599,25.294003103809455],[85.014011831248084,25.293905375723309],[85.015034178734609,25.293250672443609],[85.015492526586357,25.291513314511782],[85.015990314362341,25.290042247484198],[85.016531978632415,25.289455810709086],[85.017411274579828,25.28884267558692],[85.017679785517956,25.288414058588522],[85.01754681526198,25.287181762752301],[85.017633216564434,25.284952100291367],[85.017529739728985,25.283558765718965],[85.01756535144348,25.283074414794374],[85.0206137880254,25.282765187857471],[85.020378048144309,25.28163500892277],[85.019716209566113,25.281640615200772],[85.019310353699055,25.280196034408252],[85.019043640097735,25.27868823294197],[85.018707254716361,25.277270762635062],[85.018202197469321,25.275853101548336],[85.017677859605868,25.273808053713651],[85.017307118487949,25.272004653008114],[85.013357385835349,25.271798404384647],[85.011931375824787,25.271741026044943],[85.010040295366039,25.271613162874701],[85.008564217199108,25.271080384981243],[85.008398353630113,25.270424774774352],[85.008400019326075,25.268705101759565],[85.008470560685296,25.267594886991741],[85.008471590288281,25.266516051284754],[85.009281053448944,25.266146654014502],[85.009618808166096,25.265871544647528],[85.009977191007863,25.264842754639314],[85.010652246997154,25.26484328013759],[85.012543413347089,25.264813154922706],[85.015361109484161,25.264530652824099],[85.016604056571381,25.264414435973826],[85.017348601964926,25.264415052036316],[85.018599406065519,25.264479154336694],[85.019139484675193,25.26555379536687],[85.019510940498975,25.266479296352891],[85.020169748361738,25.268032439627362],[85.020407292441718,25.268957947593556],[85.020336923386708,25.269941793372993],[85.021518308880118,25.269974249645653],[85.022414974759968,25.269942571642652],[85.023146519875425,25.269916722566201],[85.023786803513076,25.269975853025215],[85.025444741119671,25.269977016177663],[85.02689903303245,25.270041156370763],[85.027777756888668,25.270010114360865],[85.029098039563706,25.270042651398715],[85.030195096290882,25.269998172550718],[85.030025800922346,25.270706725614534],[85.029891100761603,25.271627431373666],[85.029890546002903,25.272245797056677],[85.030093656385418,25.272769477493263],[85.030296369310605,25.273785141633155],[85.03097079957098,25.274737953384445],[85.031139183464717,25.275230025099237],[85.031833484202465,25.276047507784849],[85.032458782141887,25.276479433972405],[85.03355588988866,25.276292278879012],[85.034638168460887,25.276139514429374],[85.035487053701232,25.276108393327696],[85.036162066827941,25.276325461095315],[85.036901554990038,25.276447784685029],[85.038192209998613,25.27649375099114],[85.039341391174077,25.276573394427366],[85.039540895548356,25.278760307779873],[85.039673733791048,25.280452990840477],[85.039670925014008,25.281663498775455],[85.040114760954864,25.281608757071659],[85.040571951566463,25.280900404919617],[85.04104393688246,25.280377038242317],[85.041485856786437,25.280192248770391],[85.043074468538137,25.280130009563329],[85.043818811465286,25.280595314349526],[85.044393843213314,25.281854857385341],[85.04456226802769,25.282410197528161],[85.044730961023291,25.282626924612195],[85.044864381570648,25.283489093776041],[85.04530085918195,25.284071548531205],[85.04624898386426,25.284288761396276],[85.048820564834429,25.284199850538062],[85.049813488262657,25.284236454855382],[85.050473689734844,25.284223245611098],[85.050811411112974,25.284097083145298],[85.051065026797247,25.283374992333002],[85.051214305741794,25.282837938014357],[85.051691166853686,25.282404873459495],[85.052520309342057,25.282220199639031],[85.053786096572665,25.282360763043933],[85.054972246312204,25.283024848556501],[85.055800821907582,25.283747405034447],[85.056505422549947,25.284524111751377],[85.056708388613529,25.285526212172346],[85.056434755142931,25.286446833938395],[85.056141452617297,25.287268165159972],[85.055972182611072,25.287945156845915],[85.056225143215912,25.288365016619302],[85.056865495813383,25.288595529468136],[85.057848325459602,25.28879462193084],[85.05854338907632,25.288794926963892],[85.059268389826173,25.288623741146576],[85.060415276205475,25.288390068383919],[85.061299185832851,25.28807396035652],[85.062039097008736,25.287695144219018],[85.062441455863905,25.287356756163344],[85.062580773719773,25.286756546685144],[85.062427242614731,25.286020779065556],[85.062496915386618,25.285560392320029],[85.062462580689456,25.284896875783222],[85.062626734205764,25.284120595435372],[85.063118500704121,25.283597233572777],[85.06404707532414,25.283290755064154],[85.064459597647158,25.283123216673005],[85.065467044725324,25.282921205559969],[85.066872091397059,25.282596764261495],[85.067735943758436,25.28248883091597],[85.069601995591555,25.281986766417408],[85.070049655365281,25.281790064269536],[85.070993073638988,25.281560198127213],[85.071976066997792,25.281420666094277],[85.073008737160166,25.281222466008639],[85.073291875584815,25.280816317011904],[85.073411237633394,25.280306288998958],[85.073847293751399,25.279904665121148],[85.074460796807472,25.279553378314183],[85.075165267275651,25.27926917911644],[85.075316256827534,25.278824288491663],[85.075467814922504,25.278343294996464],[85.075538769385844,25.2776220215042],[85.075284375611517,25.276440613823702],[85.075012475646474,25.275743344381397],[85.074924475100914,25.275339077763324],[85.075196828555647,25.274123918503609],[85.075870794207447,25.273568491489144],[85.076879882226265,25.273482345254585],[85.077812230278411,25.273855595953812],[85.078310687693644,25.274807337023667],[85.078249077473075,25.2751161105341],[85.077809381242332,25.275611409018083],[85.07772668169325,25.276133926630099],[85.077689987273118,25.276887245270199],[85.077580034649145,25.277878837712301],[85.077718888232255,25.278833048136839],[85.078056154814533,25.279482909539492],[85.078523838768149,25.27973274499784],[85.079403431210949,25.279676493570619],[85.080433905976591,25.279811777927836],[85.081550606767507,25.279830819045081],[85.081435975474804,25.280336788759577],[85.081858313952864,25.281665185934926],[85.081959955869564,25.281984879922142],[85.082559779558281,25.282608434868305],[85.083824955330556,25.283178561661828],[85.084088993802794,25.28331345136084],[85.084648413018925,25.283599238237805],[85.08475169729536,25.284371154647435],[85.084447774464692,25.285174303727452],[85.083016420600913,25.286323632196055],[85.083015915815139,25.286693710353305],[85.083365085068237,25.28724679229488],[85.084484109189489,25.287625205381257],[85.085654084401526,25.287348069919698],[85.086475538644393,25.287153483115326],[85.087900124467055,25.287371675345966],[85.089309082255056,25.288108989311446],[85.09008873632186,25.288238549208966],[85.090974358774417,25.2884169557638],[85.092407066492584,25.288058114535787],[85.092664616390493,25.287872431173483],[85.094176152746485,25.286782649925456],[85.095172393417684,25.285229327139451],[85.095959033275477,25.285136130484059],[85.09685147913612,25.284894877455798],[85.09755460205875,25.283423428109877],[85.097896704444963,25.282498000697501],[85.098905151998139,25.281820393126321],[85.100750697828389,25.280945923801198],[85.102006942032304,25.280294052349362],[85.102327181285688,25.280273355290067],[85.103223514922945,25.279957625665112],[85.103999173166329,25.279561355375776],[85.104233124236231,25.278882779668816],[85.104306188634723,25.277376110363438],[85.104135924261598,25.275554862544439],[85.104290459342536,25.271999975330697],[85.104223462208068,25.271200171979075],[85.104353587849133,25.270493177474364],[85.104627001588639,25.270260078524117],[85.104965888464207,25.270063204268048],[85.106236772431089,25.270697911846739],[85.106743152341267,25.270695382650111],[85.107284585966582,25.270833228991648],[85.107524225485292,25.271865450170029],[85.107571702575768,25.272804930452118],[85.108329720204821,25.272421949854643],[85.109891320623376,25.271277400361932],[85.11081235147924,25.270509192075593],[85.111177333910817,25.270296317040366],[85.111984924425812,25.270076448122275],[85.113438369083582,25.270785651790643],[85.113543179393247,25.271712324407499],[85.11367524813339,25.272481361146824],[85.114048198206433,25.272761471328661],[85.114758080692368,25.272761516528952],[85.116198204118149,25.27305073947479],[85.115994112321317,25.273729720132302],[85.11592597853334,25.274284049504189],[85.116296414735544,25.27440613888087],[85.117514516463444,25.274286272040275],[85.117786789786592,25.275300841280771],[85.117483172436849,25.276317090517438],[85.117381013633178,25.277146329957112],[85.116971761411364,25.278251505540084],[85.115771571550582,25.279779905319831],[85.115542613415911,25.280405789677676],[85.11543464499313,25.280700932673522],[85.114823298817115,25.281067767411862],[85.113875261827715,25.281376128746277],[85.113165962949154,25.281655940655458],[85.112287478752876,25.281960667859412],[85.111469951336176,25.282175892667968],[85.110527561021129,25.28275964634253],[85.110258192645773,25.283162437554285],[85.110254622924032,25.28371307600673],[85.109327939918188,25.284563336396602],[85.108953129920522,25.285361987519551],[85.108273983442601,25.286256037185552],[85.107633005365955,25.286929397748896],[85.10736241667901,25.287729381455652],[85.107448274866869,25.288723489942399],[85.107838964700179,25.289333380424839],[85.108735096832945,25.290455269289847],[85.109240713126439,25.29082737091149],[85.109616072656664,25.291595014593867],[85.109243465776899,25.292890210893322],[85.109072222836716,25.293686957063716],[85.109747477402777,25.29368658695271],[85.111180840705856,25.293465723474203],[85.11168046361432,25.293905447102311],[85.112168326302694,25.293862620765132],[85.113430550970449,25.293751810153857],[85.114241234608684,25.2936628771707],[85.115504566405633,25.293841525205117],[85.116299671832593,25.294117998764001],[85.11705548682221,25.294366884370628],[85.117985885280092,25.294563828670341],[85.118424156793793,25.29512010711121],[85.118699329001814,25.295949645699285],[85.118293776407896,25.296811121335239],[85.118122027089029,25.29764398376814],[85.11825538086751,25.298011304988673],[85.119745920166579,25.297949072105606],[85.120714350895113,25.29813728638533],[85.12113399500987,25.298413635894722],[85.121468762809101,25.299243928734736],[85.121792108327909,25.302425772387689],[85.121863702193608,25.3032572258738],[85.121958920023076,25.303892674318469],[85.122235097199209,25.304611587275733],[85.12277667127195,25.306523313612431],[85.122974841696234,25.309130305473026],[85.122706326119498,25.310442017015369],[85.122419866877308,25.31130792019788],[85.122115737475553,25.31299672302594],[85.122472308000496,25.31402590001542],[85.123894438780312,25.313904083763859],[85.12507418917825,25.313720489956481],[85.125666064883532,25.313799148817264],[85.126298377063748,25.313875987722987],[85.126666270804989,25.314494543384875],[85.128159927544516,25.314242694179999],[85.129143978888166,25.314145289194538],[85.130255310008735,25.313935272201096],[85.13118825184776,25.313879501145809],[85.131982238222861,25.313690857017036],[85.132944213051189,25.313459300698312],[85.133376377981094,25.313406749445679],[85.13386080823787,25.313272302325018],[85.135079777703027,25.313120721102027],[85.13605759639556,25.31315114634749],[85.137110856516955,25.313119326214462],[85.139680977463811,25.312289649337238],[85.140901169892928,25.31173178907898],[85.141513293508865,25.311572997039679],[85.14235684397643,25.311361953320279],[85.143077854881724,25.311298818501438],[85.143852515436322,25.31129954912025],[85.14508041152304,25.310886192643956],[85.146027948738862,25.310947767196414],[85.147077414547724,25.311164088895708],[85.147583238479669,25.311536069109188],[85.148502481248741,25.3115327096491],[85.149438924944803,25.311311119578903],[85.149420314700166,25.310575127358479],[85.14924060774409,25.309656558971696],[85.149140777303003,25.309036907371066],[85.148938882535944,25.30827153127818],[85.149276324504271,25.307959798802813],[85.150596444433575,25.307682967524656],[85.151269633629369,25.307497317487201],[85.152931761008603,25.306606354961939],[85.154742352350922,25.305419316986107],[85.155790427086785,25.304741811798735],[85.157358414584849,25.304187646908339],[85.157687170213123,25.304092962482493],[85.158803767023727,25.303479485467459],[85.159747329324716,25.303143698587245],[85.160761241072549,25.302986581426765],[85.161915360179279,25.303599565207517],[85.162437313559607,25.30409455280699],[85.162894470914637,25.304528087487412],[85.164298317342215,25.305281339291252],[85.166227080891929,25.305801872233342],[85.167545663689452,25.305953686308776],[85.168530650763671,25.305835026011263],[85.169481060096359,25.306695441919604],[85.169952065575828,25.307405456895943],[85.170225906328596,25.308018231069276],[85.170626770186985,25.308108970636965],[85.171487330091935,25.307470297412298],[85.172218797537411,25.307248512313926],[85.172273889243982,25.306224542705021],[85.173049114869215,25.305854985904944],[85.174901186197147,25.305824918746247],[85.174698282428537,25.306301256783282],[85.173794829989419,25.306983039711479],[85.172995624580977,25.30743472676901],[85.17290134314257,25.307728134233525],[85.173065328134712,25.307985292612354],[85.173378350733074,25.308441106120121],[85.173780636136655,25.308653114026345],[85.174461196749419,25.30938860437973],[85.174561062807399,25.310774240318128],[85.174288571652284,25.312313461322955],[85.173747903122305,25.313789578775058],[85.1732071022996,25.314958770437521],[85.173277053472091,25.316064574498103],[85.173456053745014,25.316271594512223],[85.174022258990576,25.316926425809783],[85.175576577067361,25.316989098311428],[85.175978228808631,25.316842238294626],[85.177537855200271,25.316496441110303],[85.178014594913151,25.316554949988433],[85.17848682416917,25.317665121102674],[85.178556720032262,25.318527189239369],[85.178668735618984,25.319225950942062],[85.178959652944499,25.320124849421529],[85.179297552188018,25.320616706356518],[85.181060461318538,25.320616055256512],[85.182480691881864,25.320556838479177],[85.182684467229876,25.320922359147048],[85.182545649656305,25.321414391794875],[85.181940000893363,25.32184792748637],[85.181160550780874,25.322308607357535],[85.180078291266383,25.323049236242952],[85.17999901188125,25.323446460000607],[85.180351781913416,25.323848037477248],[85.181096803436802,25.32409149215146],[85.182244341003965,25.324894472340262],[85.18237868273232,25.325445076332326],[85.182378941797992,25.326000245571006],[85.182178536350776,25.326560198025877],[85.181838254760635,25.327354523237524],[85.18238005974014,25.328401464252028],[85.182449723325476,25.328694819715349],[85.182512647202344,25.329096693895359],[85.182653950861265,25.32999916213171],[85.182247226831777,25.331105142370699],[85.180961525513453,25.332401023848504],[85.181170783042802,25.333236691547139],[85.182041746202017,25.333716097974023],[85.182589853412992,25.334017788987367],[85.186004062174462,25.334217864546321],[85.187316499467244,25.335804859626126],[85.18782428213639,25.336727430209603],[85.187491198318369,25.337413957322799],[85.186661804147889,25.338074061542372],[85.186629713337695,25.339226967561132],[85.186712200771282,25.342356112498734],[85.186702101384768,25.343132537037782],[85.186644328190113,25.347573337001055],[85.186786995352506,25.347999399975684],[85.187016585986527,25.348259519141681],[85.186967175846121,25.348574883759859],[85.18695842536269,25.349161581865616],[85.187171300876074,25.349543369909142],[85.187637676069826,25.349914736713846],[85.187552087572655,25.350324447695684],[85.187291521471138,25.350808739585094],[85.186590815580303,25.35382441604294],[85.186371554822557,25.354868936754936],[85.186231876398566,25.35544509559525],[85.185966648238519,25.355703530185618],[85.184851451336442,25.355865824282738],[85.184236404147867,25.355972632067214],[85.184338921815737,25.357917833260551],[85.184578231872905,25.359523213470347],[85.184748323272714,25.360441629364814],[85.185081951632569,25.363050253707115],[85.185254142003828,25.364826331687524],[85.185341172223261,25.366316985745364],[85.184987077745973,25.368402543791493],[85.184648098425626,25.370140719288983],[85.184298876260087,25.372230847939882],[85.18417957965508,25.373582154946895],[85.186369231693718,25.373660199100961],[85.186623057456032,25.374629297691008],[85.186628746096588,25.374913742017842],[85.186238803181311,25.375739488383587],[85.186045021659993,25.376405152744812],[85.185817271766638,25.379011363343878],[85.186049881648117,25.381068044330448],[85.18606579579108,25.381998097763198],[85.185858177197744,25.382591368252534],[85.185700730662944,25.382819633821033],[85.185118470621646,25.382880158431945],[85.183032372105799,25.382868415699512],[85.182430550686647,25.382865022850233],[85.181805656236278,25.382952090856168],[85.181633412602793,25.384333460673613],[85.180887289497278,25.384496512916812],[85.18094120054397,25.384933143878328],[85.180769918211823,25.385254894645946],[85.180417392024523,25.385236991955342],[85.178737816188146,25.384579749292705],[85.177905294639828,25.384429507436032],[85.176825539181564,25.384390587941706],[85.176266235146258,25.384620623320604],[85.175894180802558,25.385004921466749],[85.175767486714165,25.385499874184891],[85.175986723238793,25.386120991417574],[85.176195347189037,25.386787114944127],[85.176259745737028,25.388453525255219],[85.178764640858248,25.389414422145386],[85.180855523171189,25.390483004320334],[85.180680395310745,25.391889161542096],[85.180860044303799,25.39287122516378],[85.180441541014915,25.393899386004065],[85.180206116878594,25.394686396747815],[85.180072970334052,25.395280578546458],[85.179943809013352,25.397265074891294],[85.179886837281074,25.398378710193438],[85.179681412877642,25.398855216377129],[85.179221844068977,25.399675560465763],[85.179050742157756,25.400810931694057],[85.179125813706918,25.401768797580072],[85.179173026888776,25.402430661580684],[85.179518861270381,25.402798310147293],[85.180465151649557,25.402263849535121],[85.181165645226557,25.401947521332847],[85.184545989159005,25.401880973566016],[85.187890406557045,25.401890641471788],[85.188844805267919,25.401875319305585],[85.190764873845495,25.402088545532752],[85.191391115450159,25.401750941090338],[85.191749434778671,25.401716981136286],[85.191922590356612,25.402102789761212],[85.192399073677549,25.406144048509326],[85.192585788057414,25.406954326968762],[85.192796761598586,25.407137476118741],[85.194850147760121,25.407081459368396],[85.195905916358626,25.406936436212842],[85.196566586972864,25.40729211239826],[85.197632576393772,25.408030063451061],[85.198468179566632,25.408421331517616],[85.199409142175313,25.408645014267481],[85.201534883598825,25.408738749804986],[85.202833274527947,25.408655326148875],[85.203707424750775,25.408693095210737],[85.204143564317334,25.408775161423954],[85.204447589694851,25.408985611039423],[85.205173629926236,25.408390489959974],[85.206043822717831,25.406941868234039],[85.206158290286083,25.406418317482142],[85.206128841311155,25.405470514310725],[85.206476979354548,25.404576896576859],[85.206363076654583,25.403601996676713],[85.205727357274114,25.40265391755409],[85.206333680035698,25.402256880455393],[85.207665532167965,25.402022618425438],[85.209141387870588,25.402311873185219],[85.210646940222176,25.402655375356169],[85.211402270498112,25.402628426112532],[85.212560242449911,25.402339917745124],[85.214617524950441,25.402290731275585],[85.216903296853374,25.402525964547618],[85.219218882036543,25.403131318041961],[85.220406473818471,25.403131587125596],[85.222170580621139,25.403289905647874],[85.225512154012222,25.403665394866774],[85.225623178628823,25.403380101715737],[85.225867296914672,25.402999364352986],[85.226556145502443,25.403007676328468],[85.226950511552459,25.403012433449632],[85.227920628316127,25.402942880293889],[85.228763820745229,25.403056862960074],[85.230694213551274,25.403251639476434],[85.232195148560137,25.403247126850665],[85.234276657298295,25.403303741862516],[85.236137063830654,25.403186143966174],[85.236908819147843,25.403087068115262],[85.23783538019471,25.40327873564463],[85.239371670958974,25.403920067427926],[85.240882936688934,25.404574627439931],[85.241290321551432,25.404927075910447],[85.242063128503446,25.405098822040163],[85.242935972306768,25.405226620049103],[85.243443465230229,25.405530606176956],[85.243551542392282,25.405960723039012],[85.243447847078997,25.406600464568459],[85.243461249911633,25.407047505356157],[85.243816868912361,25.407886835635939],[85.244034337032801,25.408656804395957],[85.244080110774206,25.40995736848129],[85.244251748878071,25.410803526661141],[85.244471314930351,25.411429074608524],[85.244642104118711,25.411990843919888],[85.244964788714938,25.412703387099683],[85.245348511840149,25.41322237740378],[85.246873285691763,25.413394231130635],[85.247616530983535,25.413628025512462],[85.24772843726636,25.413877130893894],[85.24787760994181,25.414154530910341],[85.248198912117076,25.414372864472771],[85.248799139476688,25.414571049075359],[85.2500000684215,25.414714634587217],[85.250806009448539,25.414352503230337],[85.252536557935514,25.414100495343181],[85.252080456051914,25.410357444085129],[85.25199227503569,25.405025272952422],[85.25300489155542,25.402005800010695],[85.253051108503257,25.400737163888],[85.252704425699505,25.399653256266916],[85.252004947033939,25.398474192560403],[85.25213522261663,25.397589403775214],[85.2525983268103,25.396871989943811],[85.253115737388995,25.396466153127609],[85.25448235636533,25.396706758292524],[85.255324177757515,25.397305783295696],[85.256166005979964,25.397904802642575],[85.256706883732662,25.398713475498653],[85.257888243288463,25.400181919053317],[85.261800176803732,25.400185516462919],[85.264206059461969,25.400124465921298],[85.265304016175165,25.400658192757881],[85.26638778358722,25.400514665566565],[85.270926813034947,25.399751023165798],[85.271733561814116,25.398257274458395],[85.271980119828768,25.397745041442715],[85.272226675869618,25.397232807887267],[85.272803602110955,25.396890155683568],[85.273308069350989,25.399445990869829],[85.273080278999203,25.403590462789168],[85.273557350234213,25.403584605946016],[85.274114226979293,25.403577766336905],[85.280500448656611,25.403198381513718],[85.280706258647413,25.402700759389191],[85.280965375635589,25.399220299981316],[85.281028198226252,25.398698142689085],[85.281694257836563,25.398703166956743],[85.289225227686458,25.398157889312809],[85.289155976640828,25.397780003802904],[85.288755212646706,25.395593108110116],[85.287833093463448,25.392820320380665],[85.289155254226074,25.392771600235562],[85.289228507455874,25.394302191323089],[85.29191257769881,25.394263432283584],[85.294502642568261,25.393682774290646],[85.294582826267984,25.392865637438419],[85.297351440824542,25.39271847288477],[85.297445423822381,25.393300951211504],[85.299612395582486,25.393460361466477],[85.300673394483368,25.393702574103848],[85.301734398412563,25.393944779416046],[85.3036033256964,25.393878199426361],[85.30395611523123,25.39403191789518],[85.303940682153126,25.394754287375733],[85.303462858003584,25.395661487709525],[85.303798741223005,25.398578297584766],[85.302814194435413,25.39907433674162],[85.299126370519616,25.398557341019757],[85.299294148557451,25.40016022852744],[85.299579660746787,25.403826492344127],[85.302627222765636,25.403241455612765],[85.301983916241682,25.406040288259014],[85.307550503523785,25.405820208776383],[85.307254812526338,25.403600883656001],[85.307155947535406,25.402806207577662],[85.307231189861881,25.401826522555993],[85.309100582249258,25.401258716060617],[85.310377962902038,25.401408422625224],[85.310884838473754,25.401620903498639],[85.311948573970596,25.401630515996246],[85.313425055914621,25.401369449640551],[85.313906475108894,25.402539058756524],[85.314442263596703,25.404214363783197],[85.315112566482895,25.405438248260559],[85.315519901516552,25.405889948499301],[85.317101676021935,25.405771384200094],[85.319402221229538,25.405864819611303],[85.319819938703702,25.405625737392544],[85.319929747013774,25.404824346291743],[85.320134063927284,25.404045703412329],[85.323703200599184,25.403979642981348],[85.325821157639041,25.403154320728973],[85.325528565545568,25.401863033105339],[85.325309955096486,25.401592045838544],[85.328272575947182,25.401545909748041],[85.331235197621183,25.40149971512999],[85.334003759717476,25.401640717515129],[85.334057930362277,25.402697266534684],[85.334817786449392,25.404336454035395],[85.335349417522593,25.404941674845784],[85.336055121975704,25.405357286829886],[85.337864456026608,25.405448266885895],[85.338346582609432,25.405656129337409],[85.338674495705973,25.40612126604924],[85.338921443043276,25.409782906601563],[85.33912537335712,25.410060729760886],[85.339657073069702,25.410230169321242],[85.3426544573108,25.41064200855616],[85.344458988643055,25.410647088555105],[85.345299118732058,25.410642826677638],[85.346989600106724,25.409790085544909],[85.348585455182459,25.409497003465027],[85.348935561115823,25.409412764883914],[85.349142349797589,25.408779286647171],[85.348204013372026,25.405135523667031],[85.347747257374266,25.403582232742995],[85.349039830482837,25.403072396672599],[85.351426100275035,25.402282934249286],[85.358027349432945,25.401945936927177],[85.36000580346132,25.401774816014537],[85.360676779226424,25.402036805552921],[85.360671719637921,25.402844957894914],[85.360780737340889,25.404023366842242],[85.360467255578257,25.405477120566637],[85.360287763996894,25.407621582594942],[85.360357663170319,25.409011183870259],[85.360670244212216,25.409034886611149],[85.3609211973897,25.409240324803203],[85.361793780078315,25.408868022824173],[85.36210202926118,25.408809342951006],[85.362807914879397,25.408881759560128],[85.363100883829986,25.410028540095574],[85.364408183627958,25.410859518547095],[85.365750055775706,25.412430915624746],[85.365928888056487,25.413094675462744],[85.365943952188701,25.413818624784735],[85.365953501762547,25.414277559629568],[85.365521047076655,25.416056709624698],[85.36542126361465,25.416467219888986],[85.366111911201884,25.418661542225376],[85.366402609834665,25.419228227606158],[85.366693309991163,25.419794911374648],[85.367075985703124,25.420567017083126],[85.367249892176261,25.420977929712297],[85.367553114252502,25.421560280028206],[85.368497728326574,25.421732016384393],[85.369064354111245,25.422488374649941],[85.369203286141754,25.424021197583773],[85.369511399718178,25.424824881139273],[85.371723535545243,25.42771019781534],[85.372702687918078,25.429304061259739],[85.372812030900278,25.430112307753838],[85.373010898126168,25.430369648452825],[85.373354475932985,25.43052190676238],[85.373717184592024,25.430526680589729],[85.374064352410599,25.430454615394567],[85.376004095612316,25.429584268442117],[85.379325538905206,25.427751465479655],[85.379753014288582,25.427828226635814],[85.380474016789265,25.428162368442226],[85.381145216940652,25.428347533571749],[85.381687390026357,25.428320065032171],[85.382035138642763,25.428302445046878],[85.383079300948481,25.428261848553564],[85.383541625826112,25.428424390244611],[85.383954235788934,25.430338682458153],[85.38479455996567,25.430614169256884],[85.386549606542673,25.429544192804233],[85.386892756477664,25.42930934328756],[85.38758876199023,25.429372598762221],[85.387887128734278,25.429566732324027],[85.388394242035218,25.430406510494745],[85.389483154406022,25.431891962179847],[85.390119594360797,25.432054495772892],[85.390629228113127,25.432141916224452],[85.39204371163477,25.431742878817335],[85.392689110407559,25.431543249135895],[85.392963578282519,25.431458351274699],[85.394549651599107,25.430875853430265],[85.395106464459943,25.430812600706563],[85.395713110171513,25.430695178535306],[85.396061106116846,25.430889295998099],[85.396777132466426,25.431769698804324],[85.396682784748691,25.433128694802946],[85.397075740242528,25.433697614789327],[85.398050194286483,25.433571105524639],[85.398313736412007,25.433273065403924],[85.398912797470473,25.432868943919289],[85.399785867811772,25.436596004714893],[85.400218705071225,25.439160339419988],[85.400959685866113,25.439873611122273],[85.400885194335345,25.440221293539537],[85.400437716483054,25.441435875147064],[85.400283971956398,25.444966618560851],[85.400348733390643,25.445720602218231],[85.400413495549358,25.446474584600168],[85.40057101271239,25.448878744324777],[85.400632693519654,25.449820155486801],[85.40100102181718,25.452867700493851],[85.400683023868751,25.454958080920058],[85.401125705808909,25.455879185539246],[85.401197091325258,25.457284911263603],[85.401268478449381,25.458690636724903],[85.401582347134905,25.458763915374409],[85.402588308976846,25.458998770115599],[85.402991274614081,25.459450236243669],[85.405164765014334,25.461088943040785],[85.407030318978855,25.464041508124058],[85.407856320126967,25.466371198899679],[85.407951282343433,25.468759495175036],[85.40795211358801,25.473500266612888],[85.40771845212285,25.474069131927795],[85.40664432846313,25.475107732341883],[85.403269389946175,25.477344435318354],[85.403128092052441,25.477880458707606],[85.403556455883432,25.482219238838507],[85.402875234296147,25.483564890889888],[85.402800833583484,25.484964546436021],[85.403052470391273,25.4868769124318],[85.40060741721004,25.487289980537767],[85.398020723199039,25.488211249984129],[85.397692779412466,25.488369909631782],[85.394016448548271,25.490148432989159],[85.393818858439943,25.490375784139221],[85.392175982192256,25.492266062751767],[85.39174817927649,25.493787594118533],[85.392041822896289,25.496821683145981],[85.391777653276861,25.497204111047068],[85.391275688019689,25.497255148282168],[85.387335567135167,25.49832525694524],[85.384867979575105,25.498948303959253],[85.383460070088788,25.498623187413823],[85.383101874630469,25.498537391496331],[85.380336251303646,25.499610636169496],[85.378467391918761,25.499544403527871],[85.377544993953236,25.49967534693862],[85.376974903312231,25.500011982186553],[85.375054202195869,25.501448514308084],[85.37220108431697,25.502740789110113],[85.371176623687944,25.50305273958605],[85.369090303871474,25.503688001702432],[85.367264972418624,25.505333745160886],[85.366878118567257,25.505709578900806],[85.365629429524049,25.50588569910855],[85.364828569713737,25.505989438546351],[85.363664851851709,25.506206037362904],[85.362615453412047,25.506260133648819],[85.361585889464948,25.506494737022294],[85.36057126897407,25.506661606949056],[85.359536784001833,25.50690078976351],[85.35792516823858,25.507166904052564],[85.356552470808154,25.507437530112796],[85.355420006710418,25.507712345292752],[85.354572963498214,25.507820864726025],[85.354285113228812,25.507852933515917],[85.35368260987417,25.507920016554092],[85.352324810904918,25.50792886476],[85.35134003716044,25.507861004407463],[85.350181268891959,25.507829187225219],[85.349037238398338,25.507810979870136],[85.348022683599339,25.507738608591662],[85.346978197980562,25.507643593607217],[85.345784482463387,25.507846439752832],[85.344939023641828,25.508044811843973],[85.344400861428284,25.508268548566619],[85.343864698851263,25.508493308557398],[85.343084076813412,25.508653594242411],[85.341770604700471,25.508741106346669],[85.340736153450123,25.508704842538172],[85.339552366963545,25.508727007221555],[85.337886360423738,25.508555098572643],[85.336105713205299,25.508559180106801],[85.335489756923565,25.508494505334429],[85.334867338792918,25.508427933023352],[85.332743548363709,25.508404782858957],[85.331669274996216,25.508399961491879],[85.329998037183415,25.508521315544758],[85.329570296922398,25.508611415776311],[85.328907310869056,25.508675658076729],[85.328922044114847,25.50899277388525],[85.328973160478085,25.509396548993806],[85.329047548179688,25.509969819357568],[85.327540423387475,25.510131790607478],[85.325834570264462,25.510171899585213],[85.324551217128587,25.510270716572713],[85.323223097688739,25.510419296467397],[85.322531850066611,25.510477651673835],[85.32205817852595,25.510502561673608],[85.322102797272507,25.51161484846503],[85.320890961588063,25.511534555561219],[85.320114101421183,25.511948121495749],[85.319954693297504,25.511486998029074],[85.319409052782547,25.510566399258661],[85.318439647667759,25.510597079025125],[85.317759567665831,25.510631712853598],[85.317234649442597,25.510658948907697],[85.316224980961735,25.510721652436356],[85.315393637998525,25.510783129983402],[85.314280112175609,25.510878862780245],[85.31345934867862,25.510964214107528],[85.312071616002271,25.51119840345121],[85.311101652035674,25.511423581544186],[85.309405338093612,25.511946424681337],[85.308251043939478,25.512460427825435],[85.307280899184804,25.512888797740388],[85.30629574282878,25.513542776211107],[85.305544374708603,25.514147179962766],[85.304778566022222,25.514907395363448],[85.304131014215017,25.515550205964825],[85.30242593664147,25.517199810257285],[85.300731652669995,25.51889747979282],[85.299089223481559,25.520598245399846],[85.298271109888816,25.521442697562964],[85.297332130818447,25.522411679586547],[85.29593317051318,25.524225375835396],[85.295420801070421,25.524847470653022],[85.294907663255614,25.525470491176598],[85.294317840613644,25.526309086812734],[85.293802204185312,25.52720316757329],[85.29330422886251,25.527961127640516],[85.292890753270001,25.528836440896729],[85.292542142074723,25.529522291042124],[85.29202396670847,25.530496860285734],[85.291630462653657,25.531295574769786],[85.291316477120759,25.532198132266807],[85.291200771090615,25.532878974458345],[85.291051741992703,25.533669299452978],[85.290847143517652,25.534589924744193],[85.290593026953474,25.53526224578366],[85.290378729945772,25.535785708849097],[85.290143040484168,25.536166820874168],[85.28991555039299,25.536534672618604],[85.289621694850581,25.537026420461135],[85.289322786215862,25.537572456573123],[85.288795049553755,25.538262702317216],[85.288162518465995,25.539142480443783],[85.28767943351744,25.53980561799349],[85.287161560900344,25.540563590167768],[85.28666341501517,25.541452425400092],[85.286175141179626,25.542332255407644],[85.285781612766584,25.543036066760948],[85.285238602872511,25.544006162253357],[85.284725539475062,25.544836313886282],[85.2838340569416,25.546040837276887],[85.28340084505777,25.546636292761413],[85.282942550747435,25.547308549697821],[85.282324977465393,25.548165722253682],[85.281916425008149,25.548824385348123],[85.281668842126081,25.549294680479381],[85.281417277360077,25.549764149055679],[85.280969877439574,25.550557003695765],[85.280382015790792,25.551463807868064],[85.279908787617913,25.552203677398772],[85.279296105736137,25.55305637882881],[85.278738282234983,25.553823325490335],[85.27825503736527,25.554531473050957],[85.277667306060223,25.555370647975952],[85.277139250542319,25.556218827666751],[85.27664098546407,25.556918035232503],[85.276202437599963,25.55781141078926],[85.275833499681582,25.558659652173525],[85.27545963302741,25.559566697121003],[85.274941435731705,25.560432857971769],[85.27455267327889,25.561190854698534],[85.273845234949775,25.562260072177249],[85.273421665743498,25.562945793344657],[85.27290357266277,25.563726273492289],[85.272290926154355,25.564429981133994],[85.271608601807188,25.565029675831692],[85.270951370843363,25.565593371885065],[85.26998549164702,25.566156936243537],[85.269258462949011,25.566783805745327],[85.268511505261259,25.567356448340593],[85.267869208137611,25.567911097277797],[85.267219252261498,25.568620569826493],[85.266494267046824,25.569507809188661],[85.265843073817081,25.570282314368924],[85.265531528580411,25.570665459938407],[85.265224023130955,25.571047808379163],[85.264740707880051,25.57181927806921],[85.264282059466993,25.572667413570422],[85.263674091210845,25.573474775286638],[85.262921922699661,25.574300192203605],[85.261761345933039,25.575517884867722],[85.261318574812961,25.575972522166463],[85.260879672089288,25.57642444565078],[85.260182357457097,25.577033292013308],[85.258822623406431,25.578286866234585],[85.257592115716491,25.579626376526505],[85.256964340336609,25.580366123240726],[85.25637124935524,25.581191593084704],[85.256112966321851,25.581617561515056],[85.25585785593394,25.582039586474295],[85.255294527861253,25.582946384378808],[85.254825831039398,25.583889336716915],[85.254367121283082,25.584692295120252],[85.254012965747592,25.585527015266152],[85.253549419308754,25.586427841159423],[85.25294607813936,25.587271050075493],[85.252283257353994,25.588191180406522],[85.251635407325637,25.58901208978979],[85.251072101648091,25.589851070480773],[85.250015341772169,25.591163741258438],[85.248246184314112,25.593267522758641],[85.247537096672673,25.594118414034387],[85.246727864279592,25.595338674665928],[85.246518633523891,25.595692761233956],[85.246304548172702,25.596033294042972],[85.245757542884419,25.596681204076123],[85.244569155772282,25.597953379958533],[85.244291592474809,25.598211902486891],[85.243575957390036,25.59881717274693],[85.242980982167666,25.5993381193286],[85.241884246495857,25.600126143933959],[85.24092842792696,25.600807570252851],[85.240475687251205,25.601136090748071],[85.239731940622093,25.601614645918634],[85.239347829216001,25.601835728255178],[85.238372986835472,25.60228887112735],[85.238062046452328,25.60244763204922],[85.237775654959279,25.60262928047829],[85.237484757838743,25.60277470871182],[85.237133408379208,25.602969066389832],[85.236812743135886,25.603109656912743],[85.235985527422841,25.603510436642541],[85.235042972433405,25.603964017726682],[85.234130860114675,25.604381797633426],[85.233168492563806,25.604826030049409],[85.23228915333199,25.605045644517148],[85.231611121645585,25.605235146748257],[85.231329439015155,25.605313873624723],[85.230239434465474,25.605639208339419],[85.228363524342839,25.60625743122332],[85.227372860418697,25.606597548501139],[85.226491402052048,25.606956907513894],[85.225425577751409,25.607323152879083],[85.223628119559095,25.608019022194558],[85.222589920962534,25.608539079190351],[85.221728109620642,25.608916776058226],[85.220995312823987,25.609318541623207],[85.220084042607297,25.60967311099856],[85.21914681301061,25.61009950580257],[85.218155390722828,25.610484616273418],[85.217132553670993,25.610973237485627],[85.216200171080828,25.611404226285966],[85.212198058856188,25.613079905524543],[85.209110452527625,25.614372575643202],[85.1928191560621,25.621191621933388],[85.191777127450919,25.621625569000372],[85.190982262061127,25.621836966579579],[85.189907270776914,25.622144049568973],[85.188952426701618,25.622398542446284],[85.188042743784862,25.622635515783788],[85.185818520216941,25.623208293178379],[85.18482523129741,25.623376440735836],[85.183841185629362,25.623589932509127],[85.181644578247912,25.623982368015074],[85.180720653306338,25.624169506444272],[85.179681688464839,25.624391251567772],[85.179132965698628,25.624465666874848],[85.178723832548485,25.624523763324156],[85.177640532958023,25.624708822990144],[85.176758474034031,25.624862038128256],[85.175594731326186,25.625008296711854],[85.174602150768692,25.625122281532533],[85.173421125624145,25.625193320624042],[85.172220539370485,25.625241460712456],[85.171199396588406,25.62526930091656],[85.169341487352952,25.62532274949292],[85.168212564345851,25.62524088783719],[85.167270979643519,25.625278719613743],[85.166291115754845,25.625216766812592],[85.16513037799173,25.62526087015798],[85.164235427097694,25.62518193515854],[85.16327513830565,25.625138245086216],[85.16108935728144,25.625142355220127],[85.160118611658078,25.62513465160654],[85.15927225879544,25.625133002471941],[85.158316556653986,25.625126002566837],[85.156982603767304,25.625095183863014],[85.156016103365971,25.625137127275639],[85.155204373348056,25.625149439837674],[85.15378648467123,25.625179635846898],[85.152943265295775,25.625197587310467],[85.151951872525743,25.625234748059327],[85.151054728672847,25.625300116067258],[85.148831640113528,25.625461523230793],[85.147666277909281,25.625482804163408],[85.145848072728199,25.62552728172928],[85.14559928513566,25.625533366131961],[85.144628775381761,25.625512009665741],[85.14364916058372,25.625436354273205],[85.143090818432242,25.625455335179254],[85.144009035854154,25.628412376050633],[85.145046475590604,25.631942590881675],[85.146467282527666,25.635617557909491],[85.147309287137347,25.63853731559022],[85.147732064004671,25.64000329176362],[85.147881802876043,25.641478826652364],[85.148044218201974,25.64307923199576],[85.148451698870545,25.643946138499363],[85.148520868637434,25.644663752479929],[85.14833634775654,25.644952561369053],[85.148022631158568,25.64495227482265],[85.147545474622916,25.644850019985277],[85.147071775237933,25.644748503697073],[85.14661972174649,25.643597335633256],[85.145987717633204,25.643145512608488],[85.142869265379076,25.644826699528785],[85.140814496346536,25.645914829913654],[85.14071401263385,25.645968040981881],[85.138928636989576,25.646913471816553],[85.138369580628364,25.647189787213215],[85.13694094084876,25.647895881405645],[85.135869198018071,25.648171789495201],[85.134724560273128,25.648467305389978],[85.134066444512555,25.649310794756367],[85.13424978548413,25.650335509698543],[85.134562628885774,25.651197838513255],[85.134063997698519,25.651851800452206],[85.132933015327723,25.652464770553127],[85.130428641741844,25.653387065737839],[85.129807576919788,25.65359343993147],[85.129187734942448,25.653755784864675],[85.126059110627523,25.654467483067048],[85.124022067680087,25.654795259158217],[85.120675971293323,25.654548649742505],[85.117125880580616,25.654238520198426],[85.11549783794824,25.65391200935893],[85.114054130654253,25.653581257339781],[85.112470812988121,25.653376633459018],[85.110932108679862,25.653375223828789],[85.109124468768698,25.653414041660039],[85.108127900194702,25.653602571514448],[85.107547973513491,25.654496625477002],[85.107147246515765,25.655272257655952],[85.10681190053711,25.656008148492916],[85.106169246012598,25.656970246357471],[85.10556858044167,25.65779293419773],[85.104506606277141,25.659133181885299],[85.103927347075327,25.659861373611726],[85.102914387654977,25.661558886735914],[85.102538741435438,25.662325817350428],[85.102331994418932,25.663006872029023],[85.102013272092577,25.664056777310027],[85.101768394770389,25.665051075913848],[85.101666727992367,25.666128478396647],[85.101150181676189,25.668166449980507],[85.100949504561797,25.66895817918428],[85.100704737549549,25.669943446792118],[85.100197240835897,25.671796452145493],[85.099762709094321,25.67375874008512],[85.099128598544382,25.676679776769618],[85.098923676857737,25.67785281475911],[85.097854111983025,25.67803216505968],[85.094550888620418,25.678850133853885],[85.090295329240064,25.680362011952891],[85.088281463376148,25.681573883616096],[85.087284801643705,25.681978969127737],[85.088640883846622,25.684729096765956],[85.089585063710899,25.686368502044598],[85.090488589445755,25.688585462893464],[85.091142919414636,25.691027977310252],[85.092501337039891,25.6906563080389],[85.092170414199614,25.691175919777059],[85.090957265199322,25.693101694359456],[85.090201612427563,25.694333524139974],[85.086748967702903,25.695080573571722],[85.085618076806028,25.695165088556216],[85.084486372995599,25.695777600282273],[85.081950736805808,25.695855912303653],[85.08222314550396,25.696961985107286],[85.082245924720908,25.69850106724147],[85.081746963658958,25.69907371696155],[85.081018886056683,25.699650538355755],[85.08003405387079,25.700337676670539],[85.079223751012492,25.70084452591998],[85.079067847919319,25.701891391451849],[85.078488893447883,25.70265346774017],[85.077386485393248,25.703649666223484],[85.076279840223819,25.704171884865048],[85.075023822143379,25.704549437903307],[85.073812818773135,25.704832327520243],[85.072397266444383,25.7053541948038],[85.071240738874849,25.705826624642956],[85.070981118004511,25.706255151014485],[85.070299635822536,25.705541125683496],[85.069617420082665,25.705350767608415],[85.069088750984633,25.705778857120933],[85.069197078138373,25.70658689647437],[85.069195541587519,25.707584330494019],[85.068563229295165,25.70733534407124],[85.067569202069393,25.705840182294654],[85.066375653568215,25.704426007338672],[85.065347510227127,25.702438866674314],[85.064021918218586,25.699575710243735],[85.063351357563889,25.698279549511138],[85.062473876069873,25.698765847723966],[85.06143706392136,25.699206776588397],[85.058975683714777,25.699465344004899],[85.057834309484704,25.699842987378009],[85.056194989255616,25.700111593350922],[85.055274332975713,25.699537228673925],[85.053243996706371,25.698257157425395],[85.051273323993811,25.697040404505142],[85.04974506695514,25.696424519060649],[85.049093105066717,25.696012930950303],[85.048298594557266,25.694553981745692],[85.046851112086728,25.69331981265092],[85.04523920116138,25.692108000577196],[85.04475122119895,25.692026143533607],[85.044226828612011,25.69277904705983],[85.044096333280692,25.693352138782849],[85.04431946264782,25.693970750152832],[85.04428329531072,25.694706336406231],[85.043868841732035,25.695315066996152],[85.042976553835018,25.695656804174739],[85.041477826002208,25.6952801108411],[85.040840720554371,25.695017357371782],[85.040317335873681,25.695179166441982],[85.039918112367872,25.695602776185179],[85.039772119420576,25.696455635311604],[85.039681753438828,25.696879727358898],[85.039426724171875,25.697398380821081],[85.039013090519703,25.69754226276801],[85.037742601185613,25.697626165073061],[85.036378006290249,25.697452617924665],[85.034943939813189,25.697107467857279],[85.034067277632715,25.697065604432101],[85.032836758248365,25.697126994695857],[85.032019429309216,25.697324349561509],[85.031330701157671,25.698058951182766],[85.030640304164152,25.699669164619806],[85.03045409770553,25.700666308112595],[85.029211353536326,25.701937217474946],[85.028323806513825,25.702378155964055],[85.027935560780392,25.70285246234257],[85.027489915460961,25.703396885329163],[85.027125155295963,25.703987567642962],[85.026227499178674,25.704523290529792],[85.024996569344879,25.704715469915445],[85.024373894391204,25.704663762844014],[85.024000459140979,25.704632751814692],[85.022895069684594,25.704319592032711],[85.022084591593526,25.703496921999072],[85.021324004001528,25.702642711431221],[85.020030703114045,25.701652207156268],[85.018601961490702,25.701121937188031],[85.017586097323047,25.700908148130203],[85.016753804926466,25.701118977569873],[85.015956186897782,25.701379419177986],[85.015446448313796,25.702200062555121],[85.015225172947368,25.703300978019747],[85.014988176625522,25.704749343865046],[85.014811320610704,25.705990253424403],[85.014739283602935,25.707172626312072],[85.014229594804107,25.707925491585094],[85.012978768171749,25.708122082706812],[85.012115887158657,25.70863965659435],[85.01144663709141,25.709491573263499],[85.011045157065581,25.71091714384124],[85.011042890693702,25.712086119929033],[85.010867568187919,25.712523606513436],[85.010234760902449,25.712603757596735],[85.009601770967024,25.712733633357264],[85.009456317694585,25.713225309275575],[85.009200257223014,25.714177242883281],[85.008820770019469,25.71460537550551],[85.008634286939468,25.715652114045874],[85.008963981016464,25.717683728178294],[85.008727765879314,25.718716873625286],[85.00807388188511,25.719288915807535],[85.007410912792906,25.719463850308742],[85.006543177076367,25.719855031348583],[85.005833965678221,25.720675329800674],[85.005542507965018,25.721920454403879],[85.005341023316745,25.722953669476492],[85.004875228370139,25.724162508343149],[85.003698270215466,25.724684057517528],[85.003333512958449,25.72517541336423],[85.003188085260973,25.725603913610176],[85.003076530553628,25.72656959264944],[85.00339164834628,25.728352885572267],[85.003459076670424,25.729499346788085],[85.003403135477882,25.73002726198029],[85.003247792183004,25.730464825883885],[85.002125986801843,25.730792425511321],[85.001094037609207,25.731016304213952],[84.999911093042115,25.731165975218182],[84.998910538701693,25.731113504771102],[84.998090079873606,25.730114165749498],[84.99764465104046,25.729844100195074],[84.99599989060242,25.729809473850604],[84.995472161805949,25.730216086878144]]]},"properties":{"FID":0,"Id":0,"area_km2":1703.51001}}]}